JY1SAT (JO-97)          
1 43803U 18099AX  26068.68634132  .00017774  00000+0  60804-3 0  9996
2 43803  97.4249 131.3625 0004723 256.6795 103.3919 15.30302628398390
STARLINK-33533          
1 63387U 25063AA  26068.35564524  .00034370  00000+0  11671-2 0  9993
2 63387  53.1604  51.5014 0001298  89.4968 270.6182 15.30202346 54694
